GLOBALSTAR M023 [+]     
1 25621U 99004A   24017.77511976 -.00000049  00000+0  30603-3 0  9993
2 25621  52.0081 185.8491 0011075  67.6405  35.6075 12.62443337150504
GLOBALSTAR M038 [-]     
1 25624U 99004D   24017.59825139 -.00000050  00000+0  36825-3 0  9999
2 25624  51.9972 119.2401 0002319  77.4605  26.1385 12.32491554138672
GLOBALSTAR M022 [-]     
1 25649U 99012A   24017.97370844 -.00000029  00000+0  69248-3 0  9996
2 25649  52.0023 254.1787 0001684 213.9327 250.7302 12.02476561114278
GLOBALSTAR M041 [-]     
1 25650U 99012B   24017.59830151 -.00000036  00000+0  63205-3 0  9993
2 25650  52.0018 120.8974 0002149  42.8821 317.2182 11.96652716116688
GLOBALSTAR M046 [-]     
1 25651U 99012C   24017.88806385  .00000039  00000+0  14094-2 0  9991
2 25651  52.0020 223.3885 0001474 332.9648 131.7582 12.09383061121196
GLOBALSTAR M037 [+]     
1 25652U 99012D   24018.12745902 -.00000044  00000+0  33068-3 0  9997
2 25652  52.0026 315.5957 0002127 108.0149 355.1586 12.62393518146146
